NORAD_CAT_ID,OBJECT_NAME,OBJECT_TYPE,EPOCH,MEAN_MOTION,ECCENTRICITY,INCLINATION,RA_OF_ASC_NODE,ARG_OF_PERICENTER,MEAN_ANOMALY,BSTAR,MEAN_MOTION_DOT,MEAN_MOTION_DDOT,TLE_LINE0,TLE_LINE1,TLE_LINE2,SEMIMAJOR_AXIS,PERIOD,APOGEE,PERIGEE,DECAYED
52690.0,STARLINK-4035,PAYLOAD,2023-04-20 09:20:45,15.08830315,0.0001274,53.2173,197.0549,108.5623,251.5507,-0.00013039,-2.362e-05,0.0,0 STARLINK-4035,1 52690U 22053AL  23110.38941204 -.00002362  00000-0 -13039-3 0  9996,2 52690  53.2173 197.0549 0001274 108.5623 251.5507 15.08830315 51958,6917.91,95.438,540.656,538.894,0.0
52690.0,STARLINK-4035,PAYLOAD,2023-04-20 15:42:17,15.08837343,0.0001396,53.2174,195.8664,102.9097,257.2051,-4.551e-05,-1.012e-05,0.0,0 STARLINK-4035,1 52690U 22053AL  23110.65436670 -.00001012  00000-0 -45510-4 0  9993,2 52690  53.2174 195.8664 0001396 102.9097 257.2051 15.08837343 51620,6917.889,95.438,540.719,538.788,0.0
52690.0,STARLINK-4035,PAYLOAD,2023-04-20 22:03:49,15.0883166,0.000105,53.2147,194.6752,82.4599,277.6512,-0.00014643,-2.617e-05,0.0,0 STARLINK-4035,1 52690U 22053AL  23110.91932593 -.00002617  00000-0 -14643-3 0  9991,2 52690  53.2147 194.6752 0001050  82.4599 277.6512 15.08831660 52031,6917.906,95.438,540.497,539.045,0.0
52690.0,STARLINK-4035,PAYLOAD,2023-04-21 12:22:18,15.08833391,0.0001351,53.217,192.001,87.1025,273.0122,-2.3817e-06,-3.26e-06,0.0,0 STARLINK-4035,1 52690U 22053AL  23111.51549158 -.00000326  00000-0 -23817-5 0  9999,2 52690  53.2170 192.0010 0001351  87.1025 273.0122 15.08833391 52126,6917.901,95.438,540.7,538.831,0.0
52690.0,STARLINK-4035,PAYLOAD,2023-04-21 21:54:36,15.08842021,0.0001328,53.2171,190.2176,76.6747,283.4394,-4.7316e-05,-1.041e-05,0.0,0 STARLINK-4035,1 52690U 22053AL  23111.91292760 -.00001041  00000-0 -47316-4 0  9991,2 52690  53.2171 190.2176 0001328  76.6747 283.4394 15.08842021 52180,6917.874,95.437,540.658,538.821,0.0
52690.0,STARLINK-4035,PAYLOAD,2023-04-22 21:45:24,15.08839368,0.0001056,53.2151,185.752,65.6025,294.5077,8.6234e-05,1.085e-05,0.0,0 STARLINK-4035,1 52690U 22053AL  23112.90652916  .00001085  00000-0  86234-4 0  9992,2 52690  53.2151 185.7520 0001056  65.6025 294.5077 15.08839368 52333,6917.882,95.438,540.478,539.017,0.0
52690.0,STARLINK-4035,PAYLOAD,2023-04-23 07:17:43,15.08833994,0.0001201,53.2162,183.9735,90.4702,269.6428,-1.1473e-05,-4.7e-06,0.0,0 STARLINK-4035,1 52690U 22053AL  23113.30397398 -.00000470  00000-0 -11473-4 0  9999,2 52690  53.2162 183.9735 0001201  90.4702 269.6428 15.08833994 52021,6917.899,95.438,540.595,538.933,0.0
52690.0,STARLINK-4035,PAYLOAD,2023-04-23 13:39:15,15.0884298,0.0001372,53.215,182.7823,81.0234,279.0914,0.00013569,1.872e-05,0.0,0 STARLINK-4035,1 52690U 22053AL  23113.56893221  .00001872  00000-0  13569-3 0  9995,2 52690  53.2150 182.7823 0001372  81.0234 279.0914 15.08842980 52433,6917.871,95.437,540.685,538.787,0.0
52690.0,STARLINK-4035,PAYLOAD,2023-04-23 20:00:48,15.0884967,0.0001271,53.2143,181.5921,78.1193,281.9942,0.00030969,4.646e-05,0.0,0 STARLINK-4035,1 52690U 22053AL  23113.83388990  .00004646  00000-0  30969-3 0  9992,2 52690  53.2143 181.5921 0001271  78.1193 281.9942 15.08849670 52470,6917.851,95.437,540.595,538.837,0.0
52690.0,STARLINK-4035,PAYLOAD,2023-04-24 03:57:43,15.08894832,0.0001256,53.2144,180.1054,80.6832,279.4302,0.002142,0.00034018,0.0,0 STARLINK-4035,1 52690U 22053AL  23114.16508490  .00034018  00000-0  21420-2 0  9995,2 52690  53.2144 180.1054 0001256  80.6832 279.4302 15.08894832 52151,6917.713,95.434,540.447,538.709,0.0
52690.0,STARLINK-4035,PAYLOAD,2023-04-25 10:10:03,15.08798148,0.0001314,53.2136,174.4553,99.0484,261.0657,-0.00074232,-0.00012069,0.0,0 STARLINK-4035,1 52690U 22053AL  23115.42365154 -.00012069  00000-0 -74232-3 0  9997,2 52690  53.2136 174.4553 0001314  99.0484 261.0657 15.08798148 52348,6918.008,95.44,540.782,538.964,0.0
52690.0,STARLINK-4035,PAYLOAD,2023-04-26 13:11:39,15.08821658,0.0001281,53.2147,169.3995,105.1937,254.9197,0.00089078,0.0001391,0.0,0 STARLINK-4035,1 52690U 22053AL  23116.54975958  .00013910  00000-0  89078-3 0  9998,2 52690  53.2147 169.3995 0001281 105.1937 254.9197 15.08821658 52880,6917.936,95.439,540.688,538.915,0.0
52690.0,STARLINK-4035,PAYLOAD,2023-04-26 21:08:35,15.08836443,0.0001212,53.2145,167.9132,103.7706,256.3421,0.001079,0.00016924,0.0,0 STARLINK-4035,1 52690U 22053AL  23116.88096086  .00016924  00000-0  10790-2 0  9993,2 52690  53.2145 167.9132 0001212 103.7706 256.3421 15.08836443 52937,6917.891,95.438,540.595,538.918,0.0
52690.0,STARLINK-4035,PAYLOAD,2023-04-27 09:51:39,15.08856712,0.0001202,53.2151,165.534,102.1048,258.0079,0.0011568,0.00018179,0.0,0 STARLINK-4035,1 52690U 22053AL  23117.41087785  .00018179  00000-0  11568-2 0  9997,2 52690  53.2151 165.5340 0001202 102.1048 258.0079 15.08856712 52647,6917.829,95.436,540.526,538.863,0.0
52690.0,STARLINK-4035,PAYLOAD,2023-04-28 09:42:25,15.08879385,0.0001184,53.2156,161.0739,99.2775,260.8351,0.00078768,0.00012284,0.0,0 STARLINK-4035,1 52690U 22053AL  23118.40445907  .00012284  00000-0  78768-3 0  9998,2 52690  53.2156 161.0739 0001184  99.2775 260.8351 15.08879385 52798,6917.76,95.435,540.444,538.806,0.0
52690.0,STARLINK-4035,PAYLOAD,2023-04-28 19:14:43,15.08863048,0.0001402,53.2156,159.2897,89.8733,270.242,-3.1087e-05,-7.83e-06,0.0,0 STARLINK-4035,1 52690U 22053AL  23118.80189492 -.00000783  00000-0 -31087-4 0  9993,2 52690  53.2156 159.2897 0001402  89.8733 270.2420 15.08863048 52852,6917.81,95.436,540.645,538.705,0.0
52690.0,STARLINK-4035,PAYLOAD,2023-04-29 07:57:48,15.08852892,0.0001398,53.2157,156.9115,100.9339,259.181,-0.00014756,-2.636e-05,0.0,0 STARLINK-4035,1 52690U 22053AL  23119.33181215 -.00002636  00000-0 -14756-3 0  9999,2 52690  53.2157 156.9115 0001398 100.9339 259.1810 15.08852892 52934,6917.841,95.437,540.673,538.739,0.0
52690.0,STARLINK-4035,PAYLOAD,2023-04-30 10:59:21,15.08843377,0.0001263,53.2153,151.856,92.6051,267.5086,-7.6886e-05,-1.511e-05,0.0,0 STARLINK-4035,1 52690U 22053AL  23120.45789290 -.00001511  00000-0 -76886-4 0  9995,2 52690  53.2153 151.8560 0001263  92.6051 267.5086 15.08843377 53103,6917.87,95.437,540.609,538.861,0.0
52690.0,STARLINK-4035,PAYLOAD,2023-04-30 12:34:45,15.08847064,0.0001296,53.2153,151.56,91.0085,269.1055,-7.6435e-05,-1.504e-05,0.0,0 STARLINK-4035,1 52690U 22053AL  23120.52413245 -.00001504  00000-0 -76435-4 0  9999,2 52690  53.2153 151.5600 0001296  91.0085 269.1055 15.08847064 53483,6917.859,95.437,540.62,538.827,0.0
52690.0,STARLINK-4035,PAYLOAD,2023-05-01 10:50:09,15.08834403,0.000135,53.2164,147.3927,84.5906,275.524,6.3274e-05,7.19e-06,0.0,0 STARLINK-4035,1 52690U 22053AL  23121.45150406  .00000719  00000-0  63274-4 0  9991,2 52690  53.2164 147.3927 0001350  84.5906 275.5240 15.08834403 53255,6917.897,95.438,540.696,538.829,0.0
52690.0,STARLINK-4035,PAYLOAD,2023-05-01 14:00:56,15.08835995,0.0001355,53.2165,146.7982,85.4312,274.6835,7.0673e-05,8.37e-06,0.0,0 STARLINK-4035,1 52690U 22053AL  23121.58398311  .00000837  00000-0  70673-4 0  9996,2 52690  53.2165 146.7982 0001355  85.4312 274.6835 15.08835995 53646,6917.893,95.438,540.695,538.82,0.0
52690.0,STARLINK-4035,PAYLOAD,2023-05-02 05:54:46,15.0884475,0.0001301,53.2167,143.8246,84.9834,275.1307,0.00013201,1.814e-05,0.0,0 STARLINK-4035,1 52690U 22053AL  23122.24637713  .00001814  00000-0  13201-3 0  9991,2 52690  53.2167 143.8246 0001301  84.9834 275.1307 15.08844750 53372,6917.866,95.437,540.631,538.831,0.0
52690.0,STARLINK-4035,PAYLOAD,2023-05-02 10:40:56,15.08846358,0.0001331,53.2167,142.9325,84.3841,275.7303,0.00015125,2.12e-05,0.0,0 STARLINK-4035,1 52690U 22053AL  23122.44509580  .00002120  00000-0  15125-3 0  9991,2 52690  53.2167 142.9325 0001331  84.3841 275.7303 15.08846358 53777,6917.861,95.437,540.647,538.805,0.0
52690.0,STARLINK-4035,PAYLOAD,2023-05-02 13:51:42,15.08846342,0.0001323,53.2166,142.3375,84.3228,275.7915,0.00014077,1.954e-05,0.0,0 STARLINK-4035,1 52690U 22053AL  23122.57757580  .00001954  00000-0  14077-3 0  9999,2 52690  53.2166 142.3375 0001323  84.3228 275.7915 15.08846342 53799,6917.861,95.437,540.641,538.811,0.0
52690.0,STARLINK-4035,PAYLOAD,2023-05-03 00:59:25,15.08836117,0.0001403,53.2156,140.2578,82.9068,277.2084,9.4078e-05,1.209e-05,0.0,0 STARLINK-4035,1 52690U 22053AL  23123.04126460  .00001209  00000-0  94078-4 0  9992,2 52690  53.2156 140.2578 0001403  82.9068 277.2084 15.08836117 53495,6917.892,95.438,540.728,538.787,0.0
52690.0,STARLINK-4035,PAYLOAD,2023-05-03 10:31:44,15.08837317,0.0001334,53.2161,138.4731,85.1079,275.0065,7.9898e-05,9.84e-06,0.0,0 STARLINK-4035,1 52690U 22053AL  23123.43870481  .00000984  00000-0  79898-4 0  9996,2 52690  53.2161 138.4731 0001334  85.1079 275.0065 15.08837317 53927,6917.889,95.438,540.676,538.831,0.0
52690.0,STARLINK-4035,PAYLOAD,2023-05-04 10:22:30,15.08848119,0.0001357,53.2162,134.0123,85.7611,274.3536,7.6823e-05,9.35e-06,0.0,0 STARLINK-4035,1 52690U 22053AL  23124.43229576  .00000935  00000-0  76823-4 0  9991,2 52690  53.2162 134.0123 0001357  85.7611 274.3536 15.08848119 53701,6917.856,95.437,540.659,538.782,0.0
52690.0,STARLINK-4035,PAYLOAD,2023-05-05 03:51:45,15.0883775,0.0001276,53.216,130.7414,80.895,279.2186,6.6111e-05,7.64e-06,0.0,0 STARLINK-4035,1 52690U 22053AL  23125.16094252  .00000764  00000-0  66111-4 0  9992,2 52690  53.2160 130.7414 0001276  80.8950 279.2186 15.08837750 53813,6917.887,95.438,540.635,538.87,0.0
52690.0,STARLINK-4035,PAYLOAD,2023-05-05 10:13:17,15.08839538,0.0001299,53.2162,129.5524,80.0055,280.1084,7.4531e-05,8.98e-06,0.0,0 STARLINK-4035,1 52690U 22053AL  23125.42590124  .00000898  00000-0  74531-4 0  9993,2 52690  53.2162 129.5524 0001299  80.0055 280.1084 15.08839538 54226,6917.882,95.438,540.645,538.848,0.0
52690.0,STARLINK-4035,PAYLOAD,2023-05-06 05:17:55,15.08842488,0.0001264,53.2159,125.9836,77.8922,282.2211,1.3451e-05,-7.4e-07,0.0,0 STARLINK-4035,1 52690U 22053AL  23126.22078181 -.00000074  00000-0  13451-4 0  9997,2 52690  53.2159 125.9836 0001264  77.8922 282.2211 15.08842488 53971,6917.873,95.437,540.612,538.863,0.0
